[{"OBJECT_NAME":"STARLINK-30986","OBJECT_ID":"2023-186V","EPOCH":"2026-03-09T00:12:17.228736","MEAN_MOTION":15.26746052,"ECCENTRICITY":0.00013223,"INCLINATION":43.0032,"RA_OF_ASC_NODE":67.355,"ARG_OF_PERICENTER":276.4823,"MEAN_ANOMALY":83.5877,"EPHEMERIS_TYPE":0,"CLASSIFICATION_TYPE":"U","NORAD_CAT_ID":58492,"ELEMENT_SET_NO":999,"REV_AT_EPOCH":12578,"BSTAR":3.626784e-5,"MEAN_MOTION_DOT":7.13e-6,"MEAN_MOTION_DDOT":0},{"OBJECT_NAME":"KUIPER-00204","OBJECT_ID":"2025-301N","EPOCH":"2026-03-09T09:32:32.981280","MEAN_MOTION":15.260884,"ECCENTRICITY":0.00030716,"INCLINATION":51.887,"RA_OF_ASC_NODE":71.6415,"ARG_OF_PERICENTER":354.8934,"MEAN_ANOMALY":5.2016,"EPHEMERIS_TYPE":0,"CLASSIFICATION_TYPE":"U","NORAD_CAT_ID":67145,"ELEMENT_SET_NO":999,"REV_AT_EPOCH":1373,"BSTAR":0.00079568218,"MEAN_MOTION_DOT":0.00020516,"MEAN_MOTION_DDOT":0}]
